{"type": "FeatureCollection", "features": [ {"type": "Feature", "properties": {"norad_id": 67080, "name": "STARLINK-36158", "group": "last-30-days", "lat": -43.64893387537867, "lon": 57.85226612621394, "alt_km": 321.36740608268065, "timestamp": "2025-12-24T03:53:28.365125+00:00", "meta": {"OBJECT_NAME": "STARLINK-36158", "OBJECT_ID": "2025-298F", "EPOCH": "2025-12-23T20:00:01.000224", "MEAN_MOTION": 15.86041164, "ECCENTRICITY": 0.0003771, "INCLINATION": 69.9966, "RA_OF_ASC_NODE": 218.4621, "ARG_OF_PERICENTER": 275.0471, "MEAN_ANOMALY": 236.2035, "EPHEMERIS_TYPE": 0, "CLASSIFICATION_TYPE": "U", "NORAD_CAT_ID": 67080, "ELEMENT_SET_NO": 999, "REV_AT_EPOCH": 270, "BSTAR": -0.0080684, "MEAN_MOTION_DOT": -0.01730959, "MEAN_MOTION_DDOT": 0}, "tle": {"line1": "1 67080U 25298F   25357.83334491 -.01730959  00000+0 -80684-2 0  9997", "line2": "2 67080  69.9966 218.4621 0003771 275.0471 236.2035 15.86041164  2702"}}, "geometry": {"type": "Point", "coordinates": [57.85226612621394, -43.64893387537867]}}, {"type": "Feature", "properties": {"norad_id": 67081, "name": "STARLINK-35864", "group": "last-30-days", "lat": -45.37231233708276, "lon": 59.17223618031777, "alt_km": 321.3746470242959, "timestamp": "2025-12-24T03:53:28.365135+00:00", "meta": {"OBJECT_NAME": "STARLINK-35864", "OBJECT_ID": "2025-298G", "EPOCH": "2025-12-23T20:00:01.000224", "MEAN_MOTION": 15.86042047, "ECCENTRICITY": 0.000373, "INCLINATION": 69.9968, "RA_OF_ASC_NODE": 218.4595, "ARG_OF_PERICENTER": 274.8954, "MEAN_ANOMALY": 238.319, "EPHEMERIS_TYPE": 0, "CLASSIFICATION_TYPE": "U", "NORAD_CAT_ID": 67081, "ELEMENT_SET_NO": 999, "REV_AT_EPOCH": 276, "BSTAR": -0.0080528, "MEAN_MOTION_DOT": -0.01728075, "MEAN_MOTION_DDOT": 0}, "tle": {"line1": "1 67081U 25298G   25357.83334491 -.01728075  00000+0 -80528-2 0  9991", "line2": "2 67081  69.9968 218.4595 0003730 274.8954 238.3190 15.86042047  2765"}}, "geometry": {"type": "Point", "coordinates": [59.17223618031777, -45.37231233708276]}}, {"type": "Feature", "properties": {"norad_id": 67082, "name": "STARLINK-36035", "group": "last-30-days", "lat": -47.186550593492804, "lon": 60.667282410721775, "alt_km": 321.40499551510857, "timestamp": "2025-12-24T03:53:28.365147+00:00", "meta": {"OBJECT_NAME": "STARLINK-36035", "OBJECT_ID": "2025-298H", "EPOCH": "2025-12-23T20:00:01.000224", "MEAN_MOTION": 15.86037441, "ECCENTRICITY": 0.000369, "INCLINATION": 69.9967, "RA_OF_ASC_NODE": 218.4572, "ARG_OF_PERICENTER": 274.1576, "MEAN_ANOMALY": 241.157, "EPHEMERIS_TYPE": 0, "CLASSIFICATION_TYPE": "U", "NORAD_CAT_ID": 67082, "ELEMENT_SET_NO": 999, "REV_AT_EPOCH": 276, "BSTAR": -0.0081041, "MEAN_MOTION_DOT": -0.01737189, "MEAN_MOTION_DDOT": 0}, "tle": {"line1": "1 67082U 25298H   25357.83334491 -.01737189  00000+0 -81041-2 0  9999", "line2": "2 67082  69.9967 218.4572 0003690 274.1576 241.1570 15.86037441  2764"}}, "geometry": {"type": "Point", "coordinates": [60.667282410721775, -47.186550593492804]}}, {"type": "Feature", "properties": {"norad_id": 67083, "name": "STARLINK-36170", "group": "last-30-days", "lat": -49.012339091702074, "lon": 62.297849513185106, "alt_km": 321.4368377160772, "timestamp": "2025-12-24T03:53:28.365161+00:00", "meta": {"OBJECT_NAME": "STARLINK-36170", "OBJECT_ID": "2025-298J", "EPOCH": "2025-12-23T20:00:01.000224", "MEAN_MOTION": 15.86028204, "ECCENTRICITY": 0.0003663, "INCLINATION": 69.9963, "RA_OF_ASC_NODE": 218.4544, "ARG_OF_PERICENTER": 274.3229, "MEAN_ANOMALY": 243.1296, "EPHEMERIS_TYPE": 0, "CLASSIFICATION_TYPE": "U", "NORAD_CAT_ID": 67083, "ELEMENT_SET_NO": 999, "REV_AT_EPOCH": 276, "BSTAR": -0.0080845, "MEAN_MOTION_DOT": -0.01732854, "MEAN_MOTION_DDOT": 0}, "tle": {"line1": "1 67083U 25298J   25357.83334491 -.01732854  00000+0 -80845-2 0  9995", "line2": "2 67083  69.9963 218.4544 0003663 274.3229 243.1296 15.86028204  2761"}}, "geometry": {"type": "Point", "coordinates": [62.297849513185106, -49.012339091702074]}}, {"type": "Feature", "properties": {"norad_id": 67084, "name": "STARLINK-36166", "group": "last-30-days", "lat": -50.714948700495185, "lon": 63.95110429517913, "alt_km": 321.40626571132634, "timestamp": "2025-12-24T03:53:28.365171+00:00", "meta": {"OBJECT_NAME": "STARLINK-36166", "OBJECT_ID": "2025-298K", "EPOCH": "2025-12-23T20:00:01.000224", "MEAN_MOTION": 15.86026955, "ECCENTRICITY": 0.000371, "INCLINATION": 69.9966, "RA_OF_ASC_NODE": 218.4519, "ARG_OF_PERICENTER": 274.0447, "MEAN_ANOMALY": 245.4224, "EPHEMERIS_TYPE": 0, "CLASSIFICATION_TYPE": "U", "NORAD_CAT_ID": 67084, "ELEMENT_SET_NO": 999, "REV_AT_EPOCH": 270, "BSTAR": -0.0080964, "MEAN_MOTION_DOT": -0.0173502, "MEAN_MOTION_DDOT": 0}, "tle": {"line1": "1 67084U 25298K   25357.83334491 -.01735020  00000+0 -80964-2 0  9996", "line2": "2 67084  69.9966 218.4519 0003710 274.0447 245.4224 15.86026955  2700"}}, "geometry": {"type": "Point", "coordinates": [63.95110429517913, -50.714948700495185]}}, {"type": "Feature", "properties": {"norad_id": 67085, "name": "STARLINK-35794", "group": "last-30-days", "lat": -52.37019943285233, "lon": 65.70427961815219, "alt_km": 321.0781351176065, "timestamp": "2025-12-24T03:53:28.365181+00:00", "meta": {"OBJECT_NAME": "STARLINK-35794", "OBJECT_ID": "2025-298L", "EPOCH": "2025-12-23T20:00:01.000224", "MEAN_MOTION": 15.8595442, "ECCENTRICITY": 0.0003855, "INCLINATION": 69.9966, "RA_OF_ASC_NODE": 218.4495, "ARG_OF_PERICENTER": 263.1122, "MEAN_ANOMALY": 258.3805, "EPHEMERIS_TYPE": 0, "CLASSIFICATION_TYPE": "U", "NORAD_CAT_ID": 67085, "ELEMENT_SET_NO": 999, "REV_AT_EPOCH": 276, "BSTAR": -0.0076994, "MEAN_MOTION_DOT": -0.01656043, "MEAN_MOTION_DDOT": 0}, "tle": {"line1": "1 67085U 25298L   25357.83334491 -.01656043  00000+0 -76994-2 0  9992", "line2": "2 67085  69.9966 218.4495 0003855 263.1122 258.3805 15.85954420  2763"}}, "geometry": {"type": "Point", "coordinates": [65.70427961815219, -52.37019943285233]}}, {"type": "Feature", "properties": {"norad_id": 67086, "name": "STARLINK-35841", "group": "last-30-days", "lat": -54.187383143998844, "lon": 67.82583246165281, "alt_km": 321.33182823007155, "timestamp": "2025-12-24T03:53:28.365191+00:00", "meta": {"OBJECT_NAME": "STARLINK-35841", "OBJECT_ID": "2025-298M", "EPOCH": "2025-12-23T20:00:01.000224", "MEAN_MOTION": 15.86013698, "ECCENTRICITY": 0.0003703, "INCLINATION": 69.9964, "RA_OF_ASC_NODE": 218.4469, "ARG_OF_PERICENTER": 270.9078, "MEAN_ANOMALY": 252.7737, "EPHEMERIS_TYPE": 0, "CLASSIFICATION_TYPE": "U", "NORAD_CAT_ID": 67086, "ELEMENT_SET_NO": 999, "REV_AT_EPOCH": 276, "BSTAR": -0.0080555, "MEAN_MOTION_DOT": -0.01726477, "MEAN_MOTION_DDOT": 0}, "tle": {"line1": "1 67086U 25298M   25357.83334491 -.01726477  00000+0 -80555-2 0  9990", "line2": "2 67086  69.9964 218.4469 0003703 270.9078 252.7737 15.86013698  2767"}}, "geometry": {"type": "Point", "coordinates": [67.82583246165281, -54.187383143998844]}}, {"type": "Feature", "properties": {"norad_id": 67087, "name": "STARLINK-35842", "group": "last-30-days", "lat": -55.60210021711964, "lon": 69.64719404847901, "alt_km": 321.7483035286896, "timestamp": "2025-12-24T03:53:28.365202+00:00", "meta": {"OBJECT_NAME": "STARLINK-35842", "OBJECT_ID": "2025-298N", "EPOCH": "2025-12-23T20:00:01.000224", "MEAN_MOTION": 15.86132808, "ECCENTRICITY": 0.000363, "INCLINATION": 69.9963, "RA_OF_ASC_NODE": 218.4447, "ARG_OF_PERICENTER": 272.394, "MEAN_ANOMALY": 253.0564, "EPHEMERIS_TYPE": 0, "CLASSIFICATION_TYPE": "U", "NORAD_CAT_ID": 67087, "ELEMENT_SET_NO": 999, "REV_AT_EPOCH": 276, "BSTAR": -0.0095949, "MEAN_MOTION_DOT": -0.02063182, "MEAN_MOTION_DDOT": 0}, "tle": {"line1": "1 67087U 25298N   25357.83334491 -.02063182  00000+0 -95949-2 0  9992", "line2": "2 67087  69.9963 218.4447 0003630 272.3940 253.0564 15.86132808  2763"}}, "geometry": {"type": "Point", "coordinates": [69.64719404847901, -55.60210021711964]}}, {"type": "Feature", "properties": {"norad_id": 67088, "name": "STARLINK-35882", "group": "last-30-days", "lat": -57.32660408896028, "lon": 72.1109489068279, "alt_km": 321.3509836875028, "timestamp": "2025-12-24T03:53:28.365212+00:00", "meta": {"OBJECT_NAME": "STARLINK-35882", "OBJECT_ID": "2025-298P", "EPOCH": "2025-12-23T20:00:01.000224", "MEAN_MOTION": 15.86012226, "ECCENTRICITY": 0.0003664, "INCLINATION": 69.9966, "RA_OF_ASC_NODE": 218.4423, "ARG_OF_PERICENTER": 269.7124, "MEAN_ANOMALY": 257.9401, "EPHEMERIS_TYPE": 0, "CLASSIFICATION_TYPE": "U", "NORAD_CAT_ID": 67088, "ELEMENT_SET_NO": 999, "REV_AT_EPOCH": 276, "BSTAR": -0.0081277, "MEAN_MOTION_DOT": -0.01739665, "MEAN_MOTION_DDOT": 0}, "tle": {"line1": "1 67088U 25298P   25357.83334491 -.01739665  00000+0 -81277-2 0  9997", "line2": "2 67088  69.9966 218.4423 0003664 269.7124 257.9401 15.86012226  2766"}}, "geometry": {"type": "Point", "coordinates": [72.1109489068279, -57.32660408896028]}}, {"type": "Feature", "properties": {"norad_id": 67089, "name": "STARLINK-35763", "group": "last-30-days", "lat": -58.98954181961933, "lon": 74.79921508577183, "alt_km": 321.356294607127, "timestamp": "2025-12-24T03:53:28.365222+00:00", "meta": {"OBJECT_NAME": "STARLINK-35763", "OBJECT_ID": "2025-298Q", "EPOCH": "2025-12-23T20:00:01.000224", "MEAN_MOTION": 15.85999186, "ECCENTRICITY": 0.0003661, "INCLINATION": 69.9964, "RA_OF_ASC_NODE": 218.4392, "ARG_OF_PERICENTER": 270.2481, "MEAN_ANOMALY": 259.6021, "EPHEMERIS_TYPE": 0, "CLASSIFICATION_TYPE": "U", "NORAD_CAT_ID": 67089, "ELEMENT_SET_NO": 999, "REV_AT_EPOCH": 276, "BSTAR": -0.0080517, "MEAN_MOTION_DOT": -0.01724643, "MEAN_MOTION_DDOT": 0}, "tle": {"line1": "1 67089U 25298Q   25357.83334491 -.01724643  00000+0 -80517-2 0  9994", "line2": "2 67089  69.9964 218.4392 0003661 270.2481 259.6021 15.85999186  2765"}}, "geometry": {"type": "Point", "coordinates": [74.79921508577183, -58.98954181961933]}}]}